{"type": "FeatureCollection", "features": [ {"type": "Feature", "properties": {"norad_id": 17070, "name": "POLAR BEAR", "group": "nnss", "lat": 45.42966298343668, "lon": -175.7830699722163, "alt_km": 970.3799879324552, "timestamp": "2025-12-11T08:58:27.392052+00:00", "meta": {"OBJECT_NAME": "POLAR BEAR", "OBJECT_ID": "1986-088A", "EPOCH": "2025-12-11T02:21:33.969312", "MEAN_MOTION": 13.75250284, "ECCENTRICITY": 0.0040873, "INCLINATION": 89.6175, "RA_OF_ASC_NODE": 183.8395, "ARG_OF_PERICENTER": 123.9989, "MEAN_ANOMALY": 358.2379, "EPHEMERIS_TYPE": 0, "CLASSIFICATION_TYPE": "U", "NORAD_CAT_ID": 17070, "ELEMENT_SET_NO": 999, "REV_AT_EPOCH": 95956, "BSTAR": 0.00014202, "MEAN_MOTION_DOT": 1.48e-06, "MEAN_MOTION_DDOT": 0}, "tle": {"line1": "1 17070U 86088A   25345.09830983  .00000148  00000+0  14202-3 0  9998", "line2": "2 17070  89.6175 183.8395 0040873 123.9989 358.2379 13.75250284959561"}}, "geometry": {"type": "Point", "coordinates": [-175.7830699722163, 45.42966298343668]}}, {"type": "Feature", "properties": {"norad_id": 18361, "name": "OSCAR 27", "group": "nnss", "lat": 88.3752658063238, "lon": -87.45852917556374, "alt_km": 1138.6112005424484, "timestamp": "2025-12-11T08:58:27.392063+00:00", "meta": {"OBJECT_NAME": "OSCAR 27", "OBJECT_ID": "1987-080A", "EPOCH": "2025-12-11T04:56:27.771936", "MEAN_MOTION": 13.4490624, "ECCENTRICITY": 0.0102794, "INCLINATION": 90.3742, "RA_OF_ASC_NODE": 79.215, "ARG_OF_PERICENTER": 228.2391, "MEAN_ANOMALY": 130.9937, "EPHEMERIS_TYPE": 0, "CLASSIFICATION_TYPE": "U", "NORAD_CAT_ID": 18361, "ELEMENT_SET_NO": 999, "REV_AT_EPOCH": 87536, "BSTAR": 0.00025141, "MEAN_MOTION_DOT": 1.6e-06, "MEAN_MOTION_DDOT": 0}, "tle": {"line1": "1 18361U 87080A   25345.20587699  .00000160  00000+0  25141-3 0  9999", "line2": "2 18361  90.3742  79.2150 0102794 228.2391 130.9937 13.44906240875364"}}, "geometry": {"type": "Point", "coordinates": [-87.45852917556374, 88.3752658063238]}}, {"type": "Feature", "properties": {"norad_id": 18362, "name": "OSCAR 29", "group": "nnss", "lat": 73.81126579779176, "lon": -99.02637975089706, "alt_km": 1149.0868939010898, "timestamp": "2025-12-11T08:58:27.392077+00:00", "meta": {"OBJECT_NAME": "OSCAR 29", "OBJECT_ID": "1987-080B", "EPOCH": "2025-12-11T04:56:54.281184", "MEAN_MOTION": 13.44447996, "ECCENTRICITY": 0.010385, "INCLINATION": 90.3753, "RA_OF_ASC_NODE": 79.6737, "ARG_OF_PERICENTER": 251.6181, "MEAN_ANOMALY": 123.8203, "EPHEMERIS_TYPE": 0, "CLASSIFICATION_TYPE": "U", "NORAD_CAT_ID": 18362, "ELEMENT_SET_NO": 999, "REV_AT_EPOCH": 87489, "BSTAR": 0.00022463, "MEAN_MOTION_DOT": 1.42e-06, "MEAN_MOTION_DDOT": 0}, "tle": {"line1": "1 18362U 87080B   25345.20618381  .00000142  00000+0  22463-3 0  9997", "line2": "2 18362  90.3753  79.6737 0103850 251.6181 123.8203 13.44447996874895"}}, "geometry": {"type": "Point", "coordinates": [-99.02637975089706, 73.81126579779176]}}, {"type": "Feature", "properties": {"norad_id": 19070, "name": "OSCAR 23", "group": "nnss", "lat": -34.71654097704043, "lon": 16.573164602172998, "alt_km": 1272.2352815852673, "timestamp": "2025-12-11T08:58:27.392120+00:00", "meta": {"OBJECT_NAME": "OSCAR 23", "OBJECT_ID": "1988-033A", "EPOCH": "2025-12-11T04:05:25.893312", "MEAN_MOTION": 13.27786819, "ECCENTRICITY": 0.01894, "INCLINATION": 90.3214, "RA_OF_ASC_NODE": 16.344, "ARG_OF_PERICENTER": 184.2871, "MEAN_ANOMALY": 247.6118, "EPHEMERIS_TYPE": 0, "CLASSIFICATION_TYPE": "U", "NORAD_CAT_ID": 19070, "ELEMENT_SET_NO": 999, "REV_AT_EPOCH": 82232, "BSTAR": 0.00020978, "MEAN_MOTION_DOT": 1.13e-06, "MEAN_MOTION_DDOT": 0}, "tle": {"line1": "1 19070U 88033A   25345.17043858  .00000113  00000+0  20978-3 0  9997", "line2": "2 19070  90.3214  16.3440 0189400 184.2871 247.6118 13.27786819822327"}}, "geometry": {"type": "Point", "coordinates": [16.573164602172998, -34.71654097704043]}}, {"type": "Feature", "properties": {"norad_id": 19071, "name": "OSCAR 32", "group": "nnss", "lat": 71.34536480142633, "lon": 15.52841867604436, "alt_km": 1167.7749521001997, "timestamp": "2025-12-11T08:58:27.392144+00:00", "meta": {"OBJECT_NAME": "OSCAR 32", "OBJECT_ID": "1988-033B", "EPOCH": "2025-12-11T03:29:45.932064", "MEAN_MOTION": 13.27953674, "ECCENTRICITY": 0.018823, "INCLINATION": 90.3218, "RA_OF_ASC_NODE": 16.4751, "ARG_OF_PERICENTER": 171.2182, "MEAN_ANOMALY": 251.7159, "EPHEMERIS_TYPE": 0, "CLASSIFICATION_TYPE": "U", "NORAD_CAT_ID": 19071, "ELEMENT_SET_NO": 999, "REV_AT_EPOCH": 82244, "BSTAR": 0.00013892, "MEAN_MOTION_DOT": 7.8e-07, "MEAN_MOTION_DDOT": 0}, "tle": {"line1": "1 19071U 88033B   25345.14567051  .00000078  00000+0  13892-3 0  9998", "line2": "2 19071  90.3218  16.4751 0188230 171.2182 251.7159 13.27953674822448"}}, "geometry": {"type": "Point", "coordinates": [15.52841867604436, 71.34536480142633]}}, {"type": "Feature", "properties": {"norad_id": 19223, "name": "NOVA 2", "group": "nnss", "lat": -65.02155219681234, "lon": 78.24672632009485, "alt_km": 1178.9717444885955, "timestamp": "2025-12-11T08:58:27.392156+00:00", "meta": {"OBJECT_NAME": "NOVA 2", "OBJECT_ID": "1988-052A", "EPOCH": "2025-12-10T17:44:33.779904", "MEAN_MOTION": 13.22935704, "ECCENTRICITY": 0.0030761, "INCLINATION": 89.9872, "RA_OF_ASC_NODE": 78.275, "ARG_OF_PERICENTER": 22.3603, "MEAN_ANOMALY": 132.2155, "EPHEMERIS_TYPE": 0, "CLASSIFICATION_TYPE": "U", "NORAD_CAT_ID": 19223, "ELEMENT_SET_NO": 999, "REV_AT_EPOCH": 80921, "BSTAR": 0.00020145251, "MEAN_MOTION_DOT": 9.4e-07, "MEAN_MOTION_DDOT": 0}, "tle": {"line1": "1 19223U 88052A   25344.73927986  .00000094  00000+0  20145-3 0  9996", "line2": "2 19223  89.9872  78.2750 0030761  22.3603 132.2155 13.22935704809219"}}, "geometry": {"type": "Point", "coordinates": [78.24672632009485, -65.02155219681234]}}, {"type": "Feature", "properties": {"norad_id": 19419, "name": "OSCAR 25", "group": "nnss", "lat": -84.64199572796193, "lon": 20.612102432908067, "alt_km": 1043.1939205787776, "timestamp": "2025-12-11T08:58:27.392168+00:00", "meta": {"OBJECT_NAME": "OSCAR 25", "OBJECT_ID": "1988-074A", "EPOCH": "2025-12-11T04:22:38.382816", "MEAN_MOTION": 13.42622894, "ECCENTRICITY": 0.0094386, "INCLINATION": 90.0349, "RA_OF_ASC_NODE": 20.2391, "ARG_OF_PERICENTER": 250.3644, "MEAN_ANOMALY": 179.2935, "EPHEMERIS_TYPE": 0, "CLASSIFICATION_TYPE": "U", "NORAD_CAT_ID": 19419, "ELEMENT_SET_NO": 999, "REV_AT_EPOCH": 82619, "BSTAR": 0.00021415, "MEAN_MOTION_DOT": 1.33e-06, "MEAN_MOTION_DDOT": 0}, "tle": {"line1": "1 19419U 88074A   25345.18238869  .00000133  00000+0  21415-3 0  9997", "line2": "2 19419  90.0349  20.2391 0094386 250.3644 179.2935 13.42622894826195"}}, "geometry": {"type": "Point", "coordinates": [20.612102432908067, -84.64199572796193]}}, {"type": "Feature", "properties": {"norad_id": 19420, "name": "OSCAR 31", "group": "nnss", "lat": 22.089182452417678, "lon": -159.39558718986106, "alt_km": 1094.0397016221114, "timestamp": "2025-12-11T08:58:27.392179+00:00", "meta": {"OBJECT_NAME": "OSCAR 31", "OBJECT_ID": "1988-074B", "EPOCH": "2025-12-11T03:05:17.232288", "MEAN_MOTION": 13.42584246, "ECCENTRICITY": 0.0092665, "INCLINATION": 90.0365, "RA_OF_ASC_NODE": 20.5887, "ARG_OF_PERICENTER": 244.6168, "MEAN_ANOMALY": 169.5516, "EPHEMERIS_TYPE": 0, "CLASSIFICATION_TYPE": "U", "NORAD_CAT_ID": 19420, "ELEMENT_SET_NO": 999, "REV_AT_EPOCH": 82629, "BSTAR": 0.00017539, "MEAN_MOTION_DOT": 1.1e-06, "MEAN_MOTION_DDOT": 0}, "tle": {"line1": "1 19420U 88074B   25345.12867167  .00000110  00000+0  17539-3 0  9999", "line2": "2 19420  90.0365  20.5887 0092665 244.6168 169.5516 13.42584246826299"}}, "geometry": {"type": "Point", "coordinates": [-159.39558718986106, 22.089182452417678]}}]}